{
  "type": "FeatureCollection",
  "features": [
    {
      "type": "Feature",
      "properties": {
        "norad_id": 66976,
        "name": "STARLINK-35772",
        "group": "last-30-days",
        "lat": 30.125211723489357,
        "lon": -86.96049854076907,
        "alt_km": 335.94334678669566,
        "timestamp": "2025-12-18T13:51:48.382026+00:00",
        "meta_object_name": "STARLINK-35772",
        "meta_object_id": "2025-288T",
        "meta_epoch": "2025-12-18T06:00:02.999808",
        "meta_mean_motion": 15.78434559,
        "meta_eccentricity": 0.00014932,
        "meta_inclination": 43.0011,
        "meta_ra_of_asc_node": 133.5479,
        "meta_arg_of_pericenter": 277.7961,
        "meta_mean_anomaly": 151.9098,
        "meta_ephemeris_type": 0,
        "meta_classification_type": "U",
        "meta_norad_cat_id": 66976,
        "meta_element_set_no": 999,
        "meta_rev_at_epoch": 271,
        "meta_bstar": -0.015358147,
        "meta_mean_motion_dot": -0.02368344,
        "meta_mean_motion_ddot": 0,
        "tle_line1": "1 66976U 25288T   25352.25003472 -.02368344  00000+0 -15358-1 0  9993",
        "tle_line2": "2 66976  43.0011 133.5479 0001493 277.7961 151.9098 15.78434559  2717"
      },
      "geometry": {
        "type": "Point",
        "coordinates": [
          -86.96049854076907,
          30.125211723489357
        ]
      }
    },
    {
      "type": "Feature",
      "properties": {
        "norad_id": 66977,
        "name": "STARLINK-35770",
        "group": "last-30-days",
        "lat": -18.344458932753607,
        "lon": -27.791633261900447,
        "alt_km": 314.07185188019685,
        "timestamp": "2025-12-18T13:51:48.382036+00:00",
        "meta_object_name": "STARLINK-35770",
        "meta_object_id": "2025-288U",
        "meta_epoch": "2025-12-18T06:00:02.999808",
        "meta_mean_motion": 15.87264047,
        "meta_eccentricity": 0.00015311,
        "meta_inclination": 43.0016,
        "meta_ra_of_asc_node": 133.3875,
        "meta_arg_of_pericenter": 275.7921,
        "meta_mean_anomaly": 217.9082,
        "meta_ephemeris_type": 0,
        "meta_classification_type": "U",
        "meta_norad_cat_id": 66977,
        "meta_element_set_no": 999,
        "meta_rev_at_epoch": 271,
        "meta_bstar": -0.0056929431,
        "meta_mean_motion_dot": -0.01354388,
        "meta_mean_motion_ddot": 0,
        "tle_line1": "1 66977U 25288U   25352.25003472 -.01354388  00000+0 -56929-2 0  9996",
        "tle_line2": "2 66977  43.0016 133.3875 0001531 275.7921 217.9082 15.87264047  2717"
      },
      "geometry": {
        "type": "Point",
        "coordinates": [
          -27.791633261900447,
          -18.344458932753607
        ]
      }
    },
    {
      "type": "Feature",
      "properties": {
        "norad_id": 66978,
        "name": "STARLINK-35787",
        "group": "last-30-days",
        "lat": -22.383487537719535,
        "lon": -22.424107381207918,
        "alt_km": 314.1272778871926,
        "timestamp": "2025-12-18T13:51:48.382047+00:00",
        "meta_object_name": "STARLINK-35787",
        "meta_object_id": "2025-288V",
        "meta_epoch": "2025-12-18T06:00:02.999808",
        "meta_mean_motion": 15.87359906,
        "meta_eccentricity": 0.00015635,
        "meta_inclination": 43.0017,
        "meta_ra_of_asc_node": 133.3713,
        "meta_arg_of_pericenter": 274.9442,
        "meta_mean_anomaly": 225.1404,
        "meta_ephemeris_type": 0,
        "meta_classification_type": "U",
        "meta_norad_cat_id": 66978,
        "meta_element_set_no": 999,
        "meta_rev_at_epoch": 271,
        "meta_bstar": -0.0059638054,
        "meta_mean_motion_dot": -0.0141635,
        "meta_mean_motion_ddot": 0,
        "tle_line1": "1 66978U 25288V   25352.25003472 -.01416350  00000+0 -59638-2 0  9995",
        "tle_line2": "2 66978  43.0017 133.3713 0001563 274.9442 225.1404 15.87359906  2712"
      },
      "geometry": {
        "type": "Point",
        "coordinates": [
          -22.424107381207918,
          -22.383487537719535
        ]
      }
    },
    {
      "type": "Feature",
      "properties": {
        "norad_id": 66979,
        "name": "STARLINK-36107",
        "group": "last-30-days",
        "lat": -24.013361288991696,
        "lon": -20.098692742781655,
        "alt_km": 314.2223768468939,
        "timestamp": "2025-12-18T13:51:48.382057+00:00",
        "meta_object_name": "STARLINK-36107",
        "meta_object_id": "2025-288W",
        "meta_epoch": "2025-12-18T06:00:02.999808",
        "meta_mean_motion": 15.87374606,
        "meta_eccentricity": 0.00015399,
        "meta_inclination": 43.0016,
        "meta_ra_of_asc_node": 133.3645,
        "meta_arg_of_pericenter": 274.7163,
        "meta_mean_anomaly": 228.0581,
        "meta_ephemeris_type": 0,
        "meta_classification_type": "U",
        "meta_norad_cat_id": 66979,
        "meta_element_set_no": 999,
        "meta_rev_at_epoch": 271,
        "meta_bstar": -0.0060854959,
        "meta_mean_motion_dot": -0.01442265,
        "meta_mean_motion_ddot": 0,
        "tle_line1": "1 66979U 25288W   25352.25003472 -.01442265  00000+0 -60855-2 0  9993",
        "tle_line2": "2 66979  43.0016 133.3645 0001539 274.7163 228.0581 15.87374606  2719"
      },
      "geometry": {
        "type": "Point",
        "coordinates": [
          -20.098692742781655,
          -24.013361288991696
        ]
      }
    },
    {
      "type": "Feature",
      "properties": {
        "norad_id": 66980,
        "name": "STARLINK-36086",
        "group": "last-30-days",
        "lat": -25.374270107847885,
        "lon": -18.07046640633075,
        "alt_km": 314.1874736492773,
        "timestamp": "2025-12-18T13:51:48.382068+00:00",
        "meta_object_name": "STARLINK-36086",
        "meta_object_id": "2025-288X",
        "meta_epoch": "2025-12-18T06:00:02.999808",
        "meta_mean_motion": 15.87396025,
        "meta_eccentricity": 0.00014651,
        "meta_inclination": 43.0018,
        "meta_ra_of_asc_node": 133.3585,
        "meta_arg_of_pericenter": 269.9177,
        "meta_mean_anomaly": 235.1331,
        "meta_ephemeris_type": 0,
        "meta_classification_type": "U",
        "meta_norad_cat_id": 66980,
        "meta_element_set_no": 999,
        "meta_rev_at_epoch": 271,
        "meta_bstar": -0.0061447974,
        "meta_mean_motion_dot": -0.01455691,
        "meta_mean_motion_ddot": 0,
        "tle_line1": "1 66980U 25288X   25352.25003472 -.01455691  00000+0 -61448-2 0  9991",
        "tle_line2": "2 66980  43.0018 133.3585 0001465 269.9177 235.1331 15.87396025  2716"
      },
      "geometry": {
        "type": "Point",
        "coordinates": [
          -18.07046640633075,
          -25.374270107847885
        ]
      }
    },
    {
      "type": "Feature",
      "properties": {
        "norad_id": 66981,
        "name": "STARLINK-36142",
        "group": "last-30-days",
        "lat": -26.616100881793997,
        "lon": -16.13967128149726,
        "alt_km": 314.14240157335644,
        "timestamp": "2025-12-18T13:51:48.382080+00:00",
        "meta_object_name": "STARLINK-36142",
        "meta_object_id": "2025-288Y",
        "meta_epoch": "2025-12-18T06:00:02.999808",
        "meta_mean_motion": 15.87416191,
        "meta_eccentricity": 0.00015837,
        "meta_inclination": 43.0018,
        "meta_ra_of_asc_node": 133.3533,
        "meta_arg_of_pericenter": 269.5311,
        "meta_mean_anomaly": 237.6393,
        "meta_ephemeris_type": 0,
        "meta_classification_type": "U",
        "meta_norad_cat_id": 66981,
        "meta_element_set_no": 999,
        "meta_rev_at_epoch": 271,
        "meta_bstar": -0.0061688441,
        "meta_mean_motion_dot": -0.01461986,
        "meta_mean_motion_ddot": 0,
        "tle_line1": "1 66981U 25288Y   25352.25003472 -.01461986  00000+0 -61688-2 0  9992",
        "tle_line2": "2 66981  43.0018 133.3533 0001583 269.5311 237.6393 15.87416191  2719"
      },
      "geometry": {
        "type": "Point",
        "coordinates": [
          -16.13967128149726,
          -26.616100881793997
        ]
      }
    },
    {
      "type": "Feature",
      "properties": {
        "norad_id": 66982,
        "name": "STARLINK-36113",
        "group": "last-30-days",
        "lat": -27.868239069425936,
        "lon": -14.105130825505935,
        "alt_km": 314.22532676284027,
        "timestamp": "2025-12-18T13:51:48.382093+00:00",
        "meta_object_name": "STARLINK-36113",
        "meta_object_id": "2025-288Z",
        "meta_epoch": "2025-12-18T06:00:02.999808",
        "meta_mean_motion": 15.87436044,
        "meta_eccentricity": 0.00015704,
        "meta_inclination": 43.0015,
        "meta_ra_of_asc_node": 133.3476,
        "meta_arg_of_pericenter": 273.3491,
        "meta_mean_anomaly": 236.0072,
        "meta_ephemeris_type": 0,
        "meta_classification_type": "U",
        "meta_norad_cat_id": 66982,
        "meta_element_set_no": 999,
        "meta_rev_at_epoch": 271,
        "meta_bstar": -0.0061892737,
        "meta_mean_motion_dot": -0.01497828,
        "meta_mean_motion_ddot": 0,
        "tle_line1": "1 66982U 25288Z   25352.25003472 -.01497828  00000+0 -61893-2 0  9995",
        "tle_line2": "2 66982  43.0015 133.3476 0001570 273.3491 236.0072 15.87436044  2717"
      },
      "geometry": {
        "type": "Point",
        "coordinates": [
          -14.105130825505935,
          -27.868239069425936
        ]
      }
    }
  ]
}